CSS (TIANHE)            
1 48274U 21035A   26204.03437983  .00011304  00000+0  14912-3 0  9995
2 48274  41.4690 104.3124 0001739 306.7625  53.3054 15.58280026298764
